
# Worst residual: 25.39 km
# MJD 60659.000000 (2024 Dec 15  0:00)
2022-157B = NORAD 54260 = Falcon 9-187 Stage 2
1 54260U 22157B   24350.49919926  .00000000  00000-0  00000-0 0 25210
2 54260 020.1643 130.5486 7929130 107.8806 179.1271 01.54549023    04

# Worst residual: 59.83 km
# MJD 60660.000000 (2024 Dec 16  0:00)
2022-157B = NORAD 54260 = Falcon 9-187 Stage 2
1 54260U 22157B   24351.49919926  .00000000  00000-0  00000-0 0 25211
2 54260 020.1665 130.2535 7925902 108.3962 016.1616 01.54917498    00

# Worst residual: 26.34 km
# MJD 60661.000000 (2024 Dec 17  0:00)
2022-157B = NORAD 54260 = Falcon 9-187 Stage 2
1 54260U 22157B   24352.49919926  .00000000  00000-0  00000-0 0 25212
2 54260 020.1727 129.9659 7922676 108.8631 214.6399 01.55256491    07

# Worst residual: 54.09 km
# MJD 60662.000000 (2024 Dec 18  0:00)
2022-157B = NORAD 54260 = Falcon 9-187 Stage 2
1 54260U 22157B   24353.49919926  .00000000  00000-0  00000-0 0 25213
2 54260 020.1704 129.7122 7920728 109.3299 054.1260 01.55579626    09

# Worst residual: 31.02 km
# MJD 60663.000000 (2024 Dec 19  0:00)
2022-157B = NORAD 54260 = Falcon 9-187 Stage 2
1 54260U 22157B   24354.49919926  .00000000  00000-0  00000-0 0 25214
2 54260 020.1787 129.3911 7918108 109.8451 254.6361 01.55788102    06

# Worst residual: 42.08 km
# MJD 60664.000000 (2024 Dec 20  0:00)
2022-157B = NORAD 54260 = Falcon 9-187 Stage 2
1 54260U 22157B   24355.49919926  .00000000  00000-0  00000-0 0 25215
2 54260 020.1811 129.1142 7915745 110.3259 096.0370 01.56095156    04

# Worst residual: 34.90 km
# MJD 60665.000000 (2024 Dec 21  0:00)
2022-157B = NORAD 54260 = Falcon 9-187 Stage 2
1 54260U 22157B   24356.49919926  .00000000  00000-0  00000-0 0 25216
2 54260 020.1871 128.7881 7914591 110.8557 298.3091 01.56274438    08

# Worst residual: 25.52 km
# MJD 60666.000000 (2024 Dec 22  0:00)
2022-157B = NORAD 54260 = Falcon 9-187 Stage 2
1 54260U 22157B   24357.49919926  .00000000  00000-0  00000-0 0 25217
2 54260 020.1881 128.5366 7911151 111.3073 141.5126 01.56585992    01

# Worst residual: 42.37 km
# MJD 60667.000000 (2024 Dec 23  0:00)
2022-157B = NORAD 54260 = Falcon 9-187 Stage 2
1 54260U 22157B   24358.49919926  .00000000  00000-0  00000-0 0 25218
2 54260 020.1921 128.2429 7909693 111.8179 345.6146 01.56802698    07

# Worst residual: 18.84 km
# MJD 60668.000000 (2024 Dec 24  0:00)
2022-157B = NORAD 54260 = Falcon 9-187 Stage 2
1 54260U 22157B   24359.49919926  .00000000  00000-0  00000-0 0 25219
2 54260 020.1972 127.9630 7906659 112.2907 190.7849 01.57122725    02

# Worst residual: 56.08 km
# MJD 60669.000000 (2024 Dec 25  0:00)
2022-157B = NORAD 54260 = Falcon 9-187 Stage 2
1 54260U 22157B   24360.49919926  .00000000  00000-0  00000-0 0 25211
2 54260 020.1987 127.6802 7904210 112.7943 036.9358 01.57427479    02

# Worst residual: 33.04 km
# MJD 60670.000000 (2024 Dec 26  0:00)
2022-157B = NORAD 54260 = Falcon 9-187 Stage 2
1 54260U 22157B   24361.49919926  .00000000  00000-0  00000-0 0 25212
2 54260 020.2038 127.3927 7901445 113.2769 244.2456 01.57701214    09

# Worst residual: 51.62 km
# MJD 60671.000000 (2024 Dec 27  0:00)
2022-157B = NORAD 54260 = Falcon 9-187 Stage 2
1 54260U 22157B   24362.49919926  .00000000  00000-0  00000-0 0 25213
2 54260 020.2055 127.1086 7898739 113.7716 092.6158 01.58064640    00

# Worst residual: 35.38 km
# MJD 60672.000000 (2024 Dec 28  0:00)
2022-157B = NORAD 54260 = Falcon 9-187 Stage 2
1 54260U 22157B   24363.49919926  .00000000  00000-0  00000-0 0 25214
2 54260 020.2098 126.8082 7896144 114.2809 302.0359 01.58267472    05

# Worst residual: 20.89 km
# MJD 60673.000000 (2024 Dec 29  0:00)
2022-157B = NORAD 54260 = Falcon 9-187 Stage 2
1 54260U 22157B   24364.49919926  .00000000  00000-0  00000-0 0 25215
2 54260 020.2141 126.5353 7893142 114.7499 152.4709 01.58585881    00

# Worst residual: 37.97 km
# MJD 60674.000000 (2024 Dec 30  0:00)
2022-157B = NORAD 54260 = Falcon 9-187 Stage 2
1 54260U 22157B   24365.49919926  .00000000  00000-0  00000-0 0 25216
2 54260 020.2149 126.2664 7891754 115.2380 003.7286 01.58782535    05

# Worst residual: 20.35 km
# MJD 60675.000000 (2024 Dec 31  0:00)
2022-157B = NORAD 54260 = Falcon 9-187 Stage 2
1 54260U 22157B   24366.49919926  .00000000  00000-0  00000-0 0 25217
2 54260 020.2221 125.9597 7889516 115.7407 215.8185 01.58987906    08

# Worst residual: 34.11 km
# MJD 60676.000000 (2025 Jan  1  0:00)
2022-157B = NORAD 54260 = Falcon 9-187 Stage 2
1 54260U 22157B   25001.49919926  .00000000  00000-0  00000-0 0 25214
2 54260 020.2235 125.6743 7888114 116.2394 068.5051 01.59185529    04

# Worst residual: 19.15 km
# MJD 60677.000000 (2025 Jan  2  0:00)
2022-157B = NORAD 54260 = Falcon 9-187 Stage 2
1 54260U 22157B   25002.49919926  .00000000  00000-0  00000-0 0 25215
2 54260 020.2301 125.3708 7886330 116.7464 281.7824 01.59287758    01

# Worst residual: 11.05 km
# MJD 60678.000000 (2025 Jan  3  0:00)
2022-157B = NORAD 54260 = Falcon 9-187 Stage 2
1 54260U 22157B   25003.49919926  .00000000  00000-0  00000-0 0 25216
2 54260 020.2345 125.0823 7884861 117.2373 135.5381 01.59449280    00

# Worst residual: 23.57 km
# MJD 60679.000000 (2025 Jan  4  0:00)
2022-157B = NORAD 54260 = Falcon 9-187 Stage 2
1 54260U 22157B   25004.49919926  .00000000  00000-0  00000-0 0 25217
2 54260 020.2398 124.7839 7884287 117.7479 349.7374 01.59554897    07

# Worst residual: 15.17 km
# MJD 60680.000000 (2025 Jan  5  0:00)
2022-157B = NORAD 54260 = Falcon 9-187 Stage 2
1 54260U 22157B   25005.49919926  .00000000  00000-0  00000-0 0 25218
2 54260 020.2472 124.4981 7882790 118.2346 204.3917 01.59678205    00

# Worst residual: 26.31 km
# MJD 60681.000000 (2025 Jan  6  0:00)
2022-157B = NORAD 54260 = Falcon 9-187 Stage 2
1 54260U 22157B   25006.49919926  .00000000  00000-0  00000-0 0 25219
2 54260 020.2473 124.2147 7881902 118.7308 059.4730 01.59822762    01

# Worst residual: 18.04 km
# MJD 60682.000000 (2025 Jan  7  0:00)
2022-157B = NORAD 54260 = Falcon 9-187 Stage 2
1 54260U 22157B   25007.49919926  .00000000  00000-0  00000-0 0 25210
2 54260 020.2554 123.9125 7880396 119.2391 275.0388 01.59922792    06

# Worst residual: 15.04 km
# MJD 60683.000000 (2025 Jan  8  0:00)
2022-157B = NORAD 54260 = Falcon 9-187 Stage 2
1 54260U 22157B   25008.49919926  .00000000  00000-0  00000-0 0 25211
2 54260 020.2611 123.6110 7879260 119.7417 131.1026 01.60102608    02
